NORAD_CAT_ID,OBJECT_NAME,OBJECT_TYPE,EPOCH,MEAN_MOTION,ECCENTRICITY,INCLINATION,RA_OF_ASC_NODE,ARG_OF_PERICENTER,MEAN_ANOMALY,BSTAR,MEAN_MOTION_DOT,MEAN_MOTION_DDOT,TLE_LINE0,TLE_LINE1,TLE_LINE2,SEMIMAJOR_AXIS,PERIOD,APOGEE,PERIGEE,DECAYED
49145.0,STARLINK-3119,PAYLOAD,2022-11-11 13:20:37,14.98335215,0.0003068,70.0013,75.7192,266.0912,93.9896,0.00016102,1.829e-05,0.0,0 STARLINK-3119,1 49145U 21082R   22315.55599191  .00001829  00000-0  16102-3 0  9996,2 49145  70.0013  75.7192 0003068 266.0912  93.9896 14.98335215 65095,6950.177,96.107,574.174,569.909,0.0
49145.0,STARLINK-3119,PAYLOAD,2022-11-11 18:09:02,14.983301999999998,0.0003237,70.0006,75.2141,268.6148,91.464,9.3157e-05,1.019e-05,0.0,0 STARLINK-3119,1 49145U 21082R   22315.75627689  .00001019  00000-0  93157-4 0  9999,2 49145  70.0006  75.2141 0003237 268.6148  91.4640 14.98330200 65126,6950.191999999999,96.107,574.307,569.807,0.0
49145.0,STARLINK-3119,PAYLOAD,2022-11-12 13:22:38,14.983416,0.000289,70.001,73.1946,273.8279,86.255,9.2963e-05,1.017e-05,0.0,0 STARLINK-3119,1 49145U 21082R   22316.55739111  .00001017  00000-0  92963-4 0  9994,2 49145  70.0010  73.1946 0002890 273.8279  86.2550 14.98341600 65249,6950.156999999997,96.106,574.031,570.013,0.0
49145.0,STARLINK-3119,PAYLOAD,2022-11-12 18:11:02,14.98334402,0.0002327,70.0016,72.6896,267.6534,92.4359,0.000186,2.127e-05,0.0,0 STARLINK-3119,1 49145U 21082R   22316.75767322  .00002127  00000-0  18600-3 0  9999,2 49145  70.0016  72.6896 0002327 267.6534  92.4359 14.98334402 65274,6950.179,96.107,573.6619999999998,570.427,0.0
49145.0,STARLINK-3119,PAYLOAD,2022-11-13 00:35:35,14.98333454,0.0003339,70.0013,72.0171,268.0308,92.0468,5.3068e-05,5.400000000000002e-06,0.0,0 STARLINK-3119,1 49145U 21082R   22317.02471339  .00000540  00000-0  53068-4 0  9995,2 49145  70.0013  72.0171 0003339 268.0308  92.0468 14.98333454 65317,6950.182,96.107,574.368,569.727,0.0
49145.0,STARLINK-3119,PAYLOAD,2022-11-13 11:48:32,14.9833229,0.0002888,70.0017,70.8388,268.6358,91.4471,-6.774e-05,-9.01e-06,0.0,0 STARLINK-3119,1 49145U 21082R   22317.49203716 -.00000901  00000-0 -67740-4 0  9993,2 49145  70.0017  70.8388 0002888 268.6358  91.4471 14.98332290 65387,6950.186,96.107,574.058,570.044,0.0
49145.0,STARLINK-3119,PAYLOAD,2022-11-13 18:13:04,14.9832763,0.000275,70.0014,70.1648,266.4577,93.6267,-0.00010395,-1.333e-05,0.0,0 STARLINK-3119,1 49145U 21082R   22317.75908109 -.00001333  00000-0 -10395-3 0  9993,2 49145  70.0014  70.1648 0002750 266.4577  93.6267 14.98327630 65427,6950.2,96.107,573.977,570.154,0.0
49145.0,STARLINK-3119,PAYLOAD,2022-11-14 11:50:33,14.98326253,0.0003065,70.0011,68.3138,274.3947,85.6862,-0.00012893,-1.631e-05,0.0,0 STARLINK-3119,1 49145U 21082R   22318.49344331 -.00001631  00000-0 -12893-3 0  9992,2 49145  70.0011  68.3138 0003065 274.3947  85.6862 14.98326253 65530,6950.204000000002,96.107,574.2,569.939,0.0
49145.0,STARLINK-3119,PAYLOAD,2022-11-14 16:38:57,14.98325883,0.0003101,70.001,67.8086,273.2248,86.8557,-0.00012654,-1.602e-05,0.0,0 STARLINK-3119,1 49145U 21082R   22318.69372380 -.00001602  00000-0 -12654-3 0  9992,2 49145  70.0010  67.8086 0003101 273.2248  86.8557 14.98325883 65563,6950.206,96.107,574.226,569.915,0.0
49145.0,STARLINK-3119,PAYLOAD,2022-11-15 07:04:09,14.98327331,0.0003077,70.0008,66.2937,271.2876,88.7931,0.00010088,1.111e-05,0.0,0 STARLINK-3119,1 49145U 21082R   22319.29455791  .00001111  00000-0  10088-3 0  9999,2 49145  70.0008  66.2937 0003077 271.2876  88.7931 14.98327331 65652,6950.201,96.107,574.205,569.928,0.0
49145.0,STARLINK-3119,PAYLOAD,2022-11-15 13:28:41,14.98329452,0.0003098,70.001,65.6205,273.2792,86.8012,0.0001467,1.658e-05,0.0,0 STARLINK-3119,1 49145U 21082R   22319.56159619  .00001658  00000-0  14670-3 0  9996,2 49145  70.0010  65.6205 0003098 273.2792  86.8012 14.98329452 65697,6950.195,96.107,574.2130000000002,569.906,0.0
49145.0,STARLINK-3119,PAYLOAD,2022-11-15 16:40:57,14.98331212,0.0003143,70.0009,65.2835,272.1012,87.9787,0.00016225,1.844e-05,0.0,0 STARLINK-3119,1 49145U 21082R   22319.69511479  .00001844  00000-0  16225-3 0  9991,2 49145  70.0009  65.2835 0003143 272.1012  87.9787 14.98331212 65715,6950.189,96.107,574.239,569.87,0.0
49145.0,STARLINK-3119,PAYLOAD,2022-11-16 13:30:43,14.98326015,0.0003142,70.0009,63.0956,272.1549,87.925,9.4376e-05,1.033e-05,0.0,0 STARLINK-3119,1 49145U 21082R   22320.56299973  .00001033  00000-0  94376-4 0  9995,2 49145  70.0009  63.0956 0003142 272.1549  87.9250 14.98326015 65843,6950.205,96.107,574.254,569.886,0.0
49145.0,STARLINK-3119,PAYLOAD,2022-11-16 16:42:59,14.98326105,0.0003153,70.001,62.7589,272.0302,88.0495,9.0125e-05,9.82e-06,0.0,0 STARLINK-3119,1 49145U 21082R   22320.69652010  .00000982  00000-0  90125-4 0  9994,2 49145  70.0010  62.7589 0003153 272.0302  88.0495 14.98326105 65866,6950.205,96.107,574.261,569.879,0.0
49145.0,STARLINK-3119,PAYLOAD,2022-11-17 00:43:39,14.98332886,0.000315,70.0012,61.9173,271.7328,88.34700000000002,0.0001047,1.157e-05,0.0,0 STARLINK-3119,1 49145U 21082R   22321.03031519  .00001157  00000-0  10470-3 0  9997,2 49145  70.0012  61.9173 0003150 271.7328  88.3470 14.98332886 65914,6950.184,96.107,574.238,569.86,0.0
49145.0,STARLINK-3119,PAYLOAD,2022-11-17 08:44:19,14.98331363,0.0003103,70.0012,61.0761,271.6788,88.4016,-2.5636e-07,-9.6e-07,0.0,0 STARLINK-3119,1 49145U 21082R   22321.36411870 -.00000096  00000-0 -25636-6 0  9991,2 49145  70.0012  61.0761 0003103 271.6788  88.4016 14.98331363 65966,6950.189,96.107,574.21,569.8969999999998,0.0
49145.0,STARLINK-3119,PAYLOAD,2022-11-17 11:56:36,14.98330499,0.000311,70.0011,60.7394,271.0205,89.0597,-1.2177e-05,-2.38e-06,0.0,0 STARLINK-3119,1 49145U 21082R   22321.49763971 -.00000238  00000-0 -12177-4 0  9999,2 49145  70.0011  60.7394 0003110 271.0205  89.0597 14.98330499 65981,6950.191,96.107,574.2180000000002,569.895,0.0
49145.0,STARLINK-3119,PAYLOAD,2022-11-17 15:08:52,14.98329076,0.0003188999999999,70.0011,60.403,271.9513,88.1281,-5.6291e-05,-7.65e-06,0.0,0 STARLINK-3119,1 49145U 21082R   22321.63116111 -.00000765  00000-0 -56291-4 0  9993,2 49145  70.0011  60.4030 0003189 271.9513  88.1281 14.98329076 66005,6950.196,96.107,574.2769999999998,569.844,0.0
49145.0,STARLINK-3119,PAYLOAD,2022-11-17 16:45:00,14.98329217,0.0003164,70.0012,60.2347,271.6847,88.3949,-5.188300000000001e-05,-7.12e-06,0.0,0 STARLINK-3119,1 49145U 21082R   22321.69792097 -.00000712  00000-0 -51883-4 0  9996,2 49145  70.0012  60.2347 0003164 271.6847  88.3949 14.98329217 66016,6950.195,96.107,574.259,569.861,0.0
49145.0,STARLINK-3119,PAYLOAD,2022-11-18 10:22:28,14.98327464,0.0002865,70.0005,58.3814,263.9591,96.1242,0.00012367,1.383e-05,0.0,0 STARLINK-3119,1 49145U 21082R   22322.43227537  .00001383  00000-0  12367-3 0  9997,2 49145  70.0005  58.3814 0002865 263.9591  96.1242 14.98327464 66129,6950.201,96.107,574.057,570.075,0.0
49145.0,STARLINK-3119,PAYLOAD,2022-11-18 23:11:33,14.98323827,0.0002959,70.0022,57.0364,271.9568,88.1252,-4.4204e-05,-6.2e-06,0.0,0 STARLINK-3119,1 49145U 21082R   22322.96636415 -.00000620  00000-0 -44204-4 0  9995,2 49145  70.0022  57.0364 0002959 271.9568  88.1252 14.98323827 66201,6950.212,96.107,574.134,570.02,0.0
49145.0,STARLINK-3119,PAYLOAD,2022-11-19 18:25:09,14.98331777,0.0003308,70.0011,55.01600000000001,274.1376,85.9404,0.00010468,1.156e-05,0.0,0 STARLINK-3119,1 49145U 21082R   22323.76747445  .00001156  00000-0  10468-3 0  9997,2 49145  70.0011  55.0160 0003308 274.1376  85.9404 14.98331777 66322,6950.187,96.107,574.352,569.753,0.0
49145.0,STARLINK-3119,PAYLOAD,2022-11-20 05:38:05,14.9837106,0.0003311,70.0012,53.8384,276.6266,83.4516,-0.000509,-6.168e-05,0.0,0 STARLINK-3119,1 49145U 21082R   22324.23479070 -.00006168  00000-0 -50900-3 0  9991,2 49145  70.0012  53.8384 0003311 276.6266  83.4516 14.98371060 66399,6950.066,96.104,574.232,569.63,0.0
49145.0,STARLINK-3119,PAYLOAD,2022-11-20 12:02:38,14.98325538,0.0002878,70.002,53.1656,266.8159,93.267,2.6641e-05,2.25e-06,0.0,0 STARLINK-3119,1 49145U 21082R   22324.50183911  .00000225  00000-0  26641-4 0  9999,2 49145  70.0020  53.1656 0002878 266.8159  93.2670 14.98325538 66436,6950.206999999999,96.107,574.072,570.071,0.0
49145.0,STARLINK-3119,PAYLOAD,2022-11-20 16:51:02,14.9833217,0.0003216,70.0009,52.6599,269.377,90.7021,-3.1435e-05,-4.68e-06,0.0,0 STARLINK-3119,1 49145U 21082R   22324.70211595 -.00000468  00000-0 -31435-4 0  9999,2 49145  70.0009  52.6599 0003216 269.3770  90.7021 14.98332170 66462,6950.186,96.107,574.286,569.816,0.0
49145.0,STARLINK-3119,PAYLOAD,2022-11-21 12:04:40,14.98325684,0.0003032,70.0012,50.6405,269.891,90.1902,-8.1903e-05,-1.07e-05,0.0,0 STARLINK-3119,1 49145U 21082R   22325.50324293 -.00001070  00000-0 -81903-4 0  9993,2 49145  70.0012  50.6405 0003032 269.8910  90.1902 14.98325684 66584,6950.206,96.107,574.179,569.964,0.0
49145.0,STARLINK-3119,PAYLOAD,2022-11-21 15:16:56,14.98326234,0.0003009,70.0011,50.3038,267.9303,92.1512,-8.363299999999999e-05,-1.091e-05,0.0,0 STARLINK-3119,1 49145U 21082R   22325.63676257 -.00001091  00000-0 -83633-4 0  9992,2 49145  70.0011  50.3038 0003009 267.9303  92.1512 14.98326234 66605,6950.205,96.107,574.161,569.9780000000002,0.0
49145.0,STARLINK-3119,PAYLOAD,2022-11-22 05:42:08,14.98331584,0.0003308,70.001,48.7889,273.7891,86.2889,-1.7119e-05,-2.97e-06,0.0,0 STARLINK-3119,1 49145U 21082R   22326.23759788 -.00000297  00000-0 -17119-4 0  9993,2 49145  70.0010  48.7889 0003308 273.7891  86.2889 14.98331584 66692,6950.188,96.107,574.352,569.754,0.0
49145.0,STARLINK-3119,PAYLOAD,2022-11-22 12:06:40,14.98325805,0.0003219,70.0013,48.1159,273.791,86.2881,4.0765e-05,3.93e-06,0.0,0 STARLINK-3119,1 49145U 21082R   22326.50464020  .00000393  00000-0  40765-4 0  9993,2 49145  70.0013  48.1159 0003219 273.7910  86.2881 14.98325805 66738,6950.206,96.107,574.308,569.8340000000002,0.0
